CCSDS_OMM_VERS = 2.0
CREATION_DATE  = 
ORIGINATOR     = 

OBJECT_NAME    = OKEAN-3
OBJECT_ID      = 1991-039A
CENTER_NAME    = EARTH
REF_FRAME      = TEME
TIME_SYSTEM    = UTC
MEAN_ELEMENT_THEORY = SGP/SGP4

EPOCH          = 2025-10-27T20:07:52.631040
MEAN_MOTION    = 15.03655209
ECCENTRICITY   = .0015781
INCLINATION    = 82.5144
RA_OF_ASC_NODE = 105.4599
ARG_OF_PERICENTER = 65.7566
MEAN_ANOMALY   = 294.5306

EPHEMERIS_TYPE = 0
CLASSIFICATION_TYPE = U
NORAD_CAT_ID   = 21397
ELEMENT_SET_NO = 999
REV_AT_EPOCH   = 84506
BSTAR          = .28603E-3
MEAN_MOTION_DOT = .3952E-4
MEAN_MOTION_DDOT = 0

CCSDS_OMM_VERS = 2.0
CREATION_DATE  = 
ORIGINATOR     = 

OBJECT_NAME    = COSMOS 2151
OBJECT_ID      = 1991-042A
CENTER_NAME    = EARTH
REF_FRAME      = TEME
TIME_SYSTEM    = UTC
MEAN_ELEMENT_THEORY = SGP/SGP4

EPOCH          = 2025-10-27T20:21:01.492416
MEAN_MOTION    = 14.99436600
ECCENTRICITY   = .00134
INCLINATION    = 82.4991
RA_OF_ASC_NODE = 211.7109
ARG_OF_PERICENTER = 141.4525
MEAN_ANOMALY   = 218.7659

EPHEMERIS_TYPE = 0
CLASSIFICATION_TYPE = U
NORAD_CAT_ID   = 21422
ELEMENT_SET_NO = 999
REV_AT_EPOCH   = 84328
BSTAR          = .23595E-3
MEAN_MOTION_DOT = .2922E-4
MEAN_MOTION_DDOT = 0

CCSDS_OMM_VERS = 2.0
CREATION_DATE  = 
ORIGINATOR     = 

OBJECT_NAME    = SL-14 R/B
OBJECT_ID      = 1991-042B
CENTER_NAME    = EARTH
REF_FRAME      = TEME
TIME_SYSTEM    = UTC
MEAN_ELEMENT_THEORY = SGP/SGP4

EPOCH          = 2025-10-27T14:10:24.887712
MEAN_MOTION    = 14.81678089
ECCENTRICITY   = .0016046
INCLINATION    = 82.4942
RA_OF_ASC_NODE = 345.0029
ARG_OF_PERICENTER = 322.7401
MEAN_ANOMALY   = 37.2698

EPHEMERIS_TYPE = 0
CLASSIFICATION_TYPE = U
NORAD_CAT_ID   = 21423
ELEMENT_SET_NO = 999
REV_AT_EPOCH   = 83336
BSTAR          = .66506E-4
MEAN_MOTION_DOT = .547E-5
MEAN_MOTION_DDOT = 0

CCSDS_OMM_VERS = 2.0
CREATION_DATE  = 
ORIGINATOR     = 

OBJECT_NAME    = ERS-1
OBJECT_ID      = 1991-050A
CENTER_NAME    = EARTH
REF_FRAME      = TEME
TIME_SYSTEM    = UTC
MEAN_ELEMENT_THEORY = SGP/SGP4

EPOCH          = 2025-10-27T12:12:17.875008
MEAN_MOTION    = 14.39311637
ECCENTRICITY   = .0031101
INCLINATION    = 98.7933
RA_OF_ASC_NODE = 310.4000
ARG_OF_PERICENTER = 236.3532
MEAN_ANOMALY   = 123.4687

EPHEMERIS_TYPE = 0
CLASSIFICATION_TYPE = U
NORAD_CAT_ID   = 21574
ELEMENT_SET_NO = 999
REV_AT_EPOCH   = 79657
BSTAR          = .16879E-3
MEAN_MOTION_DOT = .48E-5
MEAN_MOTION_DDOT = 0

CCSDS_OMM_VERS = 2.0
CREATION_DATE  = 
ORIGINATOR     = 

OBJECT_NAME    = ARIANE 40 R/B
OBJECT_ID      = 1991-050F
CENTER_NAME    = EARTH
REF_FRAME      = TEME
TIME_SYSTEM    = UTC
MEAN_ELEMENT_THEORY = SGP/SGP4

EPOCH          = 2025-10-27T09:22:38.968320
MEAN_MOTION    = 14.42754306
ECCENTRICITY   = .0004304
INCLINATION    = 98.2232
RA_OF_ASC_NODE = 352.4789
ARG_OF_PERICENTER = 112.1661
MEAN_ANOMALY   = 247.9987

EPHEMERIS_TYPE = 0
CLASSIFICATION_TYPE = U
NORAD_CAT_ID   = 21610
ELEMENT_SET_NO = 999
REV_AT_EPOCH   = 79977
BSTAR          = .16764E-3
MEAN_MOTION_DOT = .517E-5
MEAN_MOTION_DDOT = 0

CCSDS_OMM_VERS = 2.0
CREATION_DATE  = 
ORIGINATOR     = 

OBJECT_NAME    = INTERCOSMOS 25
OBJECT_ID      = 1991-086A
CENTER_NAME    = EARTH
REF_FRAME      = TEME
TIME_SYSTEM    = UTC
MEAN_ELEMENT_THEORY = SGP/SGP4

EPOCH          = 2025-10-27T15:31:24.856608
MEAN_MOTION    = 12.11538239
ECCENTRICITY   = .1488992
INCLINATION    = 82.6088
RA_OF_ASC_NODE = 30.4272
ARG_OF_PERICENTER = 43.7101
MEAN_ANOMALY   = 327.2627

EPHEMERIS_TYPE = 0
CLASSIFICATION_TYPE = U
NORAD_CAT_ID   = 21819
ELEMENT_SET_NO = 999
REV_AT_EPOCH   = 48057
BSTAR          = .25874E-3
MEAN_MOTION_DOT = .1347E-4
MEAN_MOTION_DDOT = 0

CCSDS_OMM_VERS = 2.0
CREATION_DATE  = 
ORIGINATOR     = 

OBJECT_NAME    = SL-8 R/B
OBJECT_ID      = 1992-008B
CENTER_NAME    = EARTH
REF_FRAME      = TEME
TIME_SYSTEM    = UTC
MEAN_ELEMENT_THEORY = SGP/SGP4

EPOCH          = 2025-10-27T16:04:22.099008
MEAN_MOTION    = 13.75945730
ECCENTRICITY   = .0035621
INCLINATION    = 82.9305
RA_OF_ASC_NODE = 6.7096
ARG_OF_PERICENTER = 144.5460
MEAN_ANOMALY   = 19.7323

EPHEMERIS_TYPE = 0
CLASSIFICATION_TYPE = U
NORAD_CAT_ID   = 21876
ELEMENT_SET_NO = 999
REV_AT_EPOCH   = 69112
BSTAR          = .10128E-3
MEAN_MOTION_DOT = .114E-5
MEAN_MOTION_DDOT = 0

CCSDS_OMM_VERS = 2.0
CREATION_DATE  = 
ORIGINATOR     = 

OBJECT_NAME    = SL-8 R/B
OBJECT_ID      = 1992-020B
CENTER_NAME    = EARTH
REF_FRAME      = TEME
TIME_SYSTEM    = UTC
MEAN_ELEMENT_THEORY = SGP/SGP4

EPOCH          = 2025-10-27T20:50:31.691904
MEAN_MOTION    = 13.75519361
ECCENTRICITY   = .0027992
INCLINATION    = 82.9290
RA_OF_ASC_NODE = 252.3803
ARG_OF_PERICENTER = 310.8116
MEAN_ANOMALY   = 107.9103

EPHEMERIS_TYPE = 0
CLASSIFICATION_TYPE = U
NORAD_CAT_ID   = 21938
ELEMENT_SET_NO = 999
REV_AT_EPOCH   = 68287
BSTAR          = .66111E-4
MEAN_MOTION_DOT = .79E-6
MEAN_MOTION_DDOT = 0

CCSDS_OMM_VERS = 2.0
CREATION_DATE  = 
ORIGINATOR     = 

OBJECT_NAME    = USA 81
OBJECT_ID      = 1992-023A
CENTER_NAME    = EARTH
REF_FRAME      = TEME
TIME_SYSTEM    = UTC
MEAN_ELEMENT_THEORY = SGP/SGP4

EPOCH          = 2025-10-27T20:33:09.732096
MEAN_MOTION    = 14.32301748
ECCENTRICITY   = .0002754
INCLINATION    = 85.0118
RA_OF_ASC_NODE = 208.0289
ARG_OF_PERICENTER = 90.4910
MEAN_ANOMALY   = 269.6598

EPHEMERIS_TYPE = 0
CLASSIFICATION_TYPE = U
NORAD_CAT_ID   = 21949
ELEMENT_SET_NO = 999
REV_AT_EPOCH   = 7577
BSTAR          = .97753E-4
MEAN_MOTION_DOT = .284E-5
MEAN_MOTION_DDOT = 0

CCSDS_OMM_VERS = 2.0
CREATION_DATE  = 
ORIGINATOR     = 

OBJECT_NAME    = COSMOS 2219
OBJECT_ID      = 1992-076A
CENTER_NAME    = EARTH
REF_FRAME      = TEME
TIME_SYSTEM    = UTC
MEAN_ELEMENT_THEORY = SGP/SGP4

EPOCH          = 2025-10-27T09:22:07.271616
MEAN_MOTION    = 14.14053467
ECCENTRICITY   = .0016686
INCLINATION    = 71.0589
RA_OF_ASC_NODE = 296.7197
ARG_OF_PERICENTER = 38.8620
MEAN_ANOMALY   = 321.3698

EPHEMERIS_TYPE = 0
CLASSIFICATION_TYPE = U
NORAD_CAT_ID   = 22219
ELEMENT_SET_NO = 999
REV_AT_EPOCH   = 69953
BSTAR          = .25019E-3
MEAN_MOTION_DOT = .43E-5
MEAN_MOTION_DDOT = 0

CCSDS_OMM_VERS = 2.0
CREATION_DATE  = 
ORIGINATOR     = 

OBJECT_NAME    = SL-16 R/B
OBJECT_ID      = 1992-076B
CENTER_NAME    = EARTH
REF_FRAME      = TEME
TIME_SYSTEM    = UTC
MEAN_ELEMENT_THEORY = SGP/SGP4

EPOCH          = 2025-10-27T11:13:26.802048
MEAN_MOTION    = 14.16828725
ECCENTRICITY   = .0014944
INCLINATION    = 70.9974
RA_OF_ASC_NODE = 108.9997
ARG_OF_PERICENTER = 294.0609
MEAN_ANOMALY   = 96.8357

EPHEMERIS_TYPE = 0
CLASSIFICATION_TYPE = U
NORAD_CAT_ID   = 22220
ELEMENT_SET_NO = 999
REV_AT_EPOCH   = 70296
BSTAR          = -.19962E-4
MEAN_MOTION_DOT = -.88E-6
MEAN_MOTION_DDOT = 0

CCSDS_OMM_VERS = 2.0
CREATION_DATE  = 
ORIGINATOR     = 

OBJECT_NAME    = COSMOS 2221
OBJECT_ID      = 1992-080A
CENTER_NAME    = EARTH
REF_FRAME      = TEME
TIME_SYSTEM    = UTC
MEAN_ELEMENT_THEORY = SGP/SGP4

EPOCH          = 2025-10-27T17:18:50.523840
MEAN_MOTION    = 14.95482624
ECCENTRICITY   = .0013217
INCLINATION    = 82.5062
RA_OF_ASC_NODE = 46.3523
ARG_OF_PERICENTER = 279.9737
MEAN_ANOMALY   = 79.9993

EPHEMERIS_TYPE = 0
CLASSIFICATION_TYPE = U
NORAD_CAT_ID   = 22236
ELEMENT_SET_NO = 999
REV_AT_EPOCH   = 76091
BSTAR          = .28866E-3
MEAN_MOTION_DOT = .3224E-4
MEAN_MOTION_DDOT = 0

