OKEAN-3                 
1 21397U 91039A   25300.83880360  .00003952  00000+0  28603-3 0  9990
2 21397  82.5144 105.4599 0015781  65.7566 294.5306 15.03655209845066
COSMOS 2151             
1 21422U 91042A   25300.84793394  .00002922  00000+0  23595-3 0  9995
2 21422  82.4991 211.7109 0013400 141.4525 218.7659 14.99436600843282
SL-14 R/B               
1 21423U 91042B   25300.59056583  .00000547  00000+0  66506-4 0  9991
2 21423  82.4942 345.0029 0016046 322.7401  37.2698 14.81678089833362
ERS-1                   
1 21574U 91050A   25300.50854022  .00000480  00000+0  16879-3 0  9995
2 21574  98.7933 310.4000 0031101 236.3532 123.4687 14.39311637796571
ARIANE 40 R/B           
1 21610U 91050F   25300.39072880  .00000517  00000+0  16764-3 0  9991
2 21610  98.2232 352.4789 0004304 112.1661 247.9987 14.42754306799776
INTERCOSMOS 25          
1 21819U 91086A   25300.64681547  .00001347  00000+0  25874-3 0  9999
2 21819  82.6088  30.4272 1488992  43.7101 327.2627 12.11538239480578
SL-8 R/B                
1 21876U 92008B   25300.66970022  .00000114  00000+0  10128-3 0  9995
2 21876  82.9305   6.7096 0035621 144.5460  19.7323 13.75945730691120
SL-8 R/B                
1 21938U 92020B   25300.86842236  .00000079  00000+0  66111-4 0  9999
2 21938  82.9290 252.3803 0027992 310.8116 107.9103 13.75519361682870
USA 81                  
1 21949U 92023A   25300.85636264  .00000284  00000+0  97753-4 0  9999
2 21949  85.0118 208.0289 0002754  90.4910 269.6598 14.32301748 75774
COSMOS 2219             
1 22219U 92076A   25300.39036194  .00000430  00000+0  25019-3 0  9991
2 22219  71.0589 296.7197 0016686  38.8620 321.3698 14.14053467699532
SL-16 R/B               
1 22220U 92076B   25300.46767132 -.00000088  00000+0 -19962-4 0  9996
2 22220  70.9974 108.9997 0014944 294.0609  96.8357 14.16828725702967
COSMOS 2221             
1 22236U 92080A   25300.72141810  .00003224  00000+0  28866-3 0  9991
2 22236  82.5062  46.3523 0013217 279.9737  79.9993 14.95482624760915
